<?xml version="1.0" encoding="UTF-8"?>
<ndm xmlns:xsi="http://www.w3.org/2001/XMLSchema-instance" xsi:noNamespaceSchemaLocation="https://sanaregistry.org/r/ndmxml_unqualified/ndmxml-2.0.0-master-2.0.xsd">
<omm id="CCSDS_OMM_VERS" version="2.0">
<header><CREATION_DATE/><ORIGINATOR/></header><body><segment><metadata><OBJECT_NAME>ORBCOMM-X</OBJECT_NAME><OBJECT_ID>1991-050C</OBJECT_ID><CENTER_NAME>EARTH</CENTER_NAME><REF_FRAME>TEME</REF_FRAME><TIME_SYSTEM>UTC</TIME_SYSTEM><MEAN_ELEMENT_THEORY>SGP4</MEAN_ELEMENT_THEORY></metadata><data><meanElements><EPOCH>2025-09-26T17:34:20.797824</EPOCH><MEAN_MOTION>14.43336931</MEAN_MOTION><ECCENTRICITY>.00027085</ECCENTRICITY><INCLINATION>98.3332</INCLINATION><RA_OF_ASC_NODE>334.2167</RA_OF_ASC_NODE><ARG_OF_PERICENTER>225.1922</ARG_OF_PERICENTER><MEAN_ANOMALY>134.9048</MEAN_ANOMALY></meanElements><tleParameters><EPHEMERIS_TYPE>0</EPHEMERIS_TYPE><CLASSIFICATION_TYPE>U</CLASSIFICATION_TYPE><NORAD_CAT_ID>21576</NORAD_CAT_ID><ELEMENT_SET_NO>999</ELEMENT_SET_NO><REV_AT_EPOCH>79676</REV_AT_EPOCH><BSTAR>.20760278E-3</BSTAR><MEAN_MOTION_DOT>.657E-5</MEAN_MOTION_DOT><MEAN_MOTION_DDOT>0</MEAN_MOTION_DDOT></tleParameters></data></segment></body></omm>
<omm id="CCSDS_OMM_VERS" version="2.0">
<header><CREATION_DATE/><ORIGINATOR/></header><body><segment><metadata><OBJECT_NAME>ORBCOMM FM01</OBJECT_NAME><OBJECT_ID>1995-017A</OBJECT_ID><CENTER_NAME>EARTH</CENTER_NAME><REF_FRAME>TEME</REF_FRAME><TIME_SYSTEM>UTC</TIME_SYSTEM><MEAN_ELEMENT_THEORY>SGP4</MEAN_ELEMENT_THEORY></metadata><data><meanElements><EPOCH>2025-09-26T04:42:10.819584</EPOCH><MEAN_MOTION>14.91288815</MEAN_MOTION><ECCENTRICITY>.0003998</ECCENTRICITY><INCLINATION>69.9634</INCLINATION><RA_OF_ASC_NODE>182.0590</RA_OF_ASC_NODE><ARG_OF_PERICENTER>209.4712</ARG_OF_PERICENTER><MEAN_ANOMALY>150.6219</MEAN_ANOMALY></meanElements><tleParameters><EPHEMERIS_TYPE>0</EPHEMERIS_TYPE><CLASSIFICATION_TYPE>U</CLASSIFICATION_TYPE><NORAD_CAT_ID>23545</NORAD_CAT_ID><ELEMENT_SET_NO>999</ELEMENT_SET_NO><REV_AT_EPOCH>62756</REV_AT_EPOCH><BSTAR>.13745E-2</BSTAR><MEAN_MOTION_DOT>.13653E-3</MEAN_MOTION_DOT><MEAN_MOTION_DDOT>0</MEAN_MOTION_DDOT></tleParameters></data></segment></body></omm>
<omm id="CCSDS_OMM_VERS" version="2.0">
<header><CREATION_DATE/><ORIGINATOR/></header><body><segment><metadata><OBJECT_NAME>ORBCOMM FM02</OBJECT_NAME><OBJECT_ID>1995-017B</OBJECT_ID><CENTER_NAME>EARTH</CENTER_NAME><REF_FRAME>TEME</REF_FRAME><TIME_SYSTEM>UTC</TIME_SYSTEM><MEAN_ELEMENT_THEORY>SGP4</MEAN_ELEMENT_THEORY></metadata><data><meanElements><EPOCH>2025-09-26T22:38:42.146304</EPOCH><MEAN_MOTION>14.92474384</MEAN_MOTION><ECCENTRICITY>.00050202</ECCENTRICITY><INCLINATION>69.9648</INCLINATION><RA_OF_ASC_NODE>199.2079</RA_OF_ASC_NODE><ARG_OF_PERICENTER>198.8109</ARG_OF_PERICENTER><MEAN_ANOMALY>161.2863</MEAN_ANOMALY></meanElements><tleParameters><EPHEMERIS_TYPE>0</EPHEMERIS_TYPE><CLASSIFICATION_TYPE>U</CLASSIFICATION_TYPE><NORAD_CAT_ID>23546</NORAD_CAT_ID><ELEMENT_SET_NO>999</ELEMENT_SET_NO><REV_AT_EPOCH>62733</REV_AT_EPOCH><BSTAR>.14164056E-2</BSTAR><MEAN_MOTION_DOT>.145E-3</MEAN_MOTION_DOT><MEAN_MOTION_DDOT>0</MEAN_MOTION_DDOT></tleParameters></data></segment></body></omm>
<omm id="CCSDS_OMM_VERS" version="2.0">
<header><CREATION_DATE/><ORIGINATOR/></header><body><segment><metadata><OBJECT_NAME>ORBCOMM FM08</OBJECT_NAME><OBJECT_ID>1997-084A</OBJECT_ID><CENTER_NAME>EARTH</CENTER_NAME><REF_FRAME>TEME</REF_FRAME><TIME_SYSTEM>UTC</TIME_SYSTEM><MEAN_ELEMENT_THEORY>SGP4</MEAN_ELEMENT_THEORY></metadata><data><meanElements><EPOCH>2025-09-26T22:50:50.919936</EPOCH><MEAN_MOTION>14.46144392</MEAN_MOTION><ECCENTRICITY>.00062375</ECCENTRICITY><INCLINATION>45.0124</INCLINATION><RA_OF_ASC_NODE>239.2388</RA_OF_ASC_NODE><ARG_OF_PERICENTER>22.6084</ARG_OF_PERICENTER><MEAN_ANOMALY>337.5042</MEAN_ANOMALY></meanElements><tleParameters><EPHEMERIS_TYPE>0</EPHEMERIS_TYPE><CLASSIFICATION_TYPE>U</CLASSIFICATION_TYPE><NORAD_CAT_ID>25112</NORAD_CAT_ID><ELEMENT_SET_NO>999</ELEMENT_SET_NO><REV_AT_EPOCH>45610</REV_AT_EPOCH><BSTAR>.10353137E-2</BSTAR><MEAN_MOTION_DOT>.3592E-4</MEAN_MOTION_DOT><MEAN_MOTION_DDOT>0</MEAN_MOTION_DDOT></tleParameters></data></segment></body></omm>
<omm id="CCSDS_OMM_VERS" version="2.0">
<header><CREATION_DATE/><ORIGINATOR/></header><body><segment><metadata><OBJECT_NAME>ORBCOMM FM10</OBJECT_NAME><OBJECT_ID>1997-084B</OBJECT_ID><CENTER_NAME>EARTH</CENTER_NAME><REF_FRAME>TEME</REF_FRAME><TIME_SYSTEM>UTC</TIME_SYSTEM><MEAN_ELEMENT_THEORY>SGP4</MEAN_ELEMENT_THEORY></metadata><data><meanElements><EPOCH>2025-09-26T22:45:48.261600</EPOCH><MEAN_MOTION>14.45917201</MEAN_MOTION><ECCENTRICITY>.0005987</ECCENTRICITY><INCLINATION>45.0137</INCLINATION><RA_OF_ASC_NODE>241.8187</RA_OF_ASC_NODE><ARG_OF_PERICENTER>347.8672</ARG_OF_PERICENTER><MEAN_ANOMALY>12.2035</MEAN_ANOMALY></meanElements><tleParameters><EPHEMERIS_TYPE>0</EPHEMERIS_TYPE><CLASSIFICATION_TYPE>U</CLASSIFICATION_TYPE><NORAD_CAT_ID>25113</NORAD_CAT_ID><ELEMENT_SET_NO>999</ELEMENT_SET_NO><REV_AT_EPOCH>63124</REV_AT_EPOCH><BSTAR>.10527479E-2</BSTAR><MEAN_MOTION_DOT>.3638E-4</MEAN_MOTION_DOT><MEAN_MOTION_DDOT>0</MEAN_MOTION_DDOT></tleParameters></data></segment></body></omm>
<omm id="CCSDS_OMM_VERS" version="2.0">
<header><CREATION_DATE/><ORIGINATOR/></header><body><segment><metadata><OBJECT_NAME>ORBCOMM FM11</OBJECT_NAME><OBJECT_ID>1997-084C</OBJECT_ID><CENTER_NAME>EARTH</CENTER_NAME><REF_FRAME>TEME</REF_FRAME><TIME_SYSTEM>UTC</TIME_SYSTEM><MEAN_ELEMENT_THEORY>SGP4</MEAN_ELEMENT_THEORY></metadata><data><meanElements><EPOCH>2025-09-26T15:00:16.601760</EPOCH><MEAN_MOTION>14.45658928</MEAN_MOTION><ECCENTRICITY>.00067394</ECCENTRICITY><INCLINATION>45.0124</INCLINATION><RA_OF_ASC_NODE>244.1890</RA_OF_ASC_NODE><ARG_OF_PERICENTER>349.8767</ARG_OF_PERICENTER><MEAN_ANOMALY>10.1948</MEAN_ANOMALY></meanElements><tleParameters><EPHEMERIS_TYPE>0</EPHEMERIS_TYPE><CLASSIFICATION_TYPE>U</CLASSIFICATION_TYPE><NORAD_CAT_ID>25114</NORAD_CAT_ID><ELEMENT_SET_NO>999</ELEMENT_SET_NO><REV_AT_EPOCH>45615</REV_AT_EPOCH><BSTAR>.92027721E-3</BSTAR><MEAN_MOTION_DOT>.3144E-4</MEAN_MOTION_DOT><MEAN_MOTION_DDOT>0</MEAN_MOTION_DDOT></tleParameters></data></segment></body></omm>
<omm id="CCSDS_OMM_VERS" version="2.0">
<header><CREATION_DATE/><ORIGINATOR/></header><body><segment><metadata><OBJECT_NAME>ORBCOMM FM12</OBJECT_NAME><OBJECT_ID>1997-084D</OBJECT_ID><CENTER_NAME>EARTH</CENTER_NAME><REF_FRAME>TEME</REF_FRAME><TIME_SYSTEM>UTC</TIME_SYSTEM><MEAN_ELEMENT_THEORY>SGP4</MEAN_ELEMENT_THEORY></metadata><data><meanElements><EPOCH>2025-09-26T22:21:46.224864</EPOCH><MEAN_MOTION>14.45680010</MEAN_MOTION><ECCENTRICITY>.00059106</ECCENTRICITY><INCLINATION>45.0130</INCLINATION><RA_OF_ASC_NODE>242.4573</RA_OF_ASC_NODE><ARG_OF_PERICENTER>345.7525</ARG_OF_PERICENTER><MEAN_ANOMALY>14.3159</MEAN_ANOMALY></meanElements><tleParameters><EPHEMERIS_TYPE>0</EPHEMERIS_TYPE><CLASSIFICATION_TYPE>U</CLASSIFICATION_TYPE><NORAD_CAT_ID>25115</NORAD_CAT_ID><ELEMENT_SET_NO>999</ELEMENT_SET_NO><REV_AT_EPOCH>45599</REV_AT_EPOCH><BSTAR>.91547418E-3</BSTAR><MEAN_MOTION_DOT>.3128E-4</MEAN_MOTION_DOT><MEAN_MOTION_DDOT>0</MEAN_MOTION_DDOT></tleParameters></data></segment></body></omm>
<omm id="CCSDS_OMM_VERS" version="2.0">
<header><CREATION_DATE/><ORIGINATOR/></header><body><segment><metadata><OBJECT_NAME>ORBCOMM FM09</OBJECT_NAME><OBJECT_ID>1997-084E</OBJECT_ID><CENTER_NAME>EARTH</CENTER_NAME><REF_FRAME>TEME</REF_FRAME><TIME_SYSTEM>UTC</TIME_SYSTEM><MEAN_ELEMENT_THEORY>SGP4</MEAN_ELEMENT_THEORY></metadata><data><meanElements><EPOCH>2025-09-26T15:03:46.236672</EPOCH><MEAN_MOTION>14.45540251</MEAN_MOTION><ECCENTRICITY>.00073751</ECCENTRICITY><INCLINATION>45.0134</INCLINATION><RA_OF_ASC_NODE>244.9546</RA_OF_ASC_NODE><ARG_OF_PERICENTER>339.6229</ARG_OF_PERICENTER><MEAN_ANOMALY>20.4327</MEAN_ANOMALY></meanElements><tleParameters><EPHEMERIS_TYPE>0</EPHEMERIS_TYPE><CLASSIFICATION_TYPE>U</CLASSIFICATION_TYPE><NORAD_CAT_ID>25116</NORAD_CAT_ID><ELEMENT_SET_NO>999</ELEMENT_SET_NO><REV_AT_EPOCH>45615</REV_AT_EPOCH><BSTAR>.97831497E-3</BSTAR><MEAN_MOTION_DOT>.3343E-4</MEAN_MOTION_DOT><MEAN_MOTION_DDOT>0</MEAN_MOTION_DDOT></tleParameters></data></segment></body></omm>

</ndm>
