ORBCOMM-X               
1 21576U 91050C   25269.73218516  .00000657  00000+0  20760-3 0  9998
2 21576  98.3332 334.2167 0002708 225.1922 134.9048 14.43336931796768
ORBCOMM FM01            
1 23545U 95017A   25269.19595856  .00013653  00000+0  13745-2 0  9992
2 23545  69.9634 182.0590 0003998 209.4712 150.6219 14.91288815627564
ORBCOMM FM02            
1 23546U 95017B   25269.94354336  .00014500  00000+0  14164-2 0  9990
2 23546  69.9648 199.2079 0005020 198.8109 161.2863 14.92474384627338
ORBCOMM FM08            
1 25112U 97084A   25269.95197824  .00003592  00000+0  10353-2 0  9990
2 25112  45.0124 239.2388 0006237  22.6084 337.5042 14.46144392456102
ORBCOMM FM10            
1 25113U 97084B   25269.94847525  .00003638  00000+0  10527-2 0  9994
2 25113  45.0137 241.8187 0005987 347.8672  12.2035 14.45917201631244
ORBCOMM FM11            
1 25114U 97084C   25269.62519215  .00003144  00000+0  92028-3 0  9991
2 25114  45.0124 244.1890 0006739 349.8767  10.1948 14.45658928456154
ORBCOMM FM12            
1 25115U 97084D   25269.93178501  .00003128  00000+0  91547-3 0  9992
2 25115  45.0130 242.4573 0005910 345.7525  14.3159 14.45680010455996
ORBCOMM FM09            
1 25116U 97084E   25269.62761848  .00003343  00000+0  97831-3 0  9992
2 25116  45.0134 244.9546 0007375 339.6229  20.4327 14.45540251456154
